[{"OBJECT_NAME":"STARLINK-30480","OBJECT_ID":"2023-158U","EPOCH":"2026-03-09T12:13:58.064448","MEAN_MOTION":15.27582544,"ECCENTRICITY":0.00035568,"INCLINATION":42.9995,"RA_OF_ASC_NODE":245.8442,"ARG_OF_PERICENTER":286.239,"MEAN_ANOMALY":73.807,"EPHEMERIS_TYPE":0,"CLASSIFICATION_TYPE":"U","NORAD_CAT_ID":58069,"ELEMENT_SET_NO":999,"REV_AT_EPOCH":13521,"BSTAR":0.00032269699,"MEAN_MOTION_DOT":8.629e-5,"MEAN_MOTION_DDOT":0},{"OBJECT_NAME":"FLOCK 4G-1","OBJECT_ID":"2025-009BK","EPOCH":"2026-03-09T18:13:41.778912","MEAN_MOTION":15.27421081,"ECCENTRICITY":0.00031801,"INCLINATION":97.4059,"RA_OF_ASC_NODE":151.3158,"ARG_OF_PERICENTER":323.1401,"MEAN_ANOMALY":36.9619,"EPHEMERIS_TYPE":0,"CLASSIFICATION_TYPE":"U","NORAD_CAT_ID":62666,"ELEMENT_SET_NO":999,"REV_AT_EPOCH":6372,"BSTAR":0.00050653644,"MEAN_MOTION_DOT":0.00013534,"MEAN_MOTION_DDOT":0}]
